[
  {
    "name": "ONEWEB-0311",
    "noradId": "49097",
    "line1": "1 49097U 21075Y   26187.00387699  .00000035  00000+0  56076-4 0  9995",
    "line2": "2 49097  87.9137   2.1190 0001942  77.8444 282.2905 13.17647731236109"
  },
  {
    "name": "ONEWEB-0312",
    "noradId": "49098",
    "line1": "1 49098U 21075Z   26187.01907115  .00000040  00000+0  69624-4 0  9997",
    "line2": "2 49098  87.9135   2.1262 0002139  86.1700 273.9676 13.17647874236082"
  },
  {
    "name": "ONEWEB-0313",
    "noradId": "49099",
    "line1": "1 49099U 21075AA  26186.94806102  .00000031  00000+0  47105-4 0  9993",
    "line2": "2 49099  87.9134   2.1456 0001903  86.7761 273.3588 13.17649772236061"
  },
  {
    "name": "ONEWEB-0314",
    "noradId": "49100",
    "line1": "1 49100U 21075AB  26186.99038862  .00000048  00000+0  91643-4 0  9995",
    "line2": "2 49100  87.9144   2.1121 0002203  84.7189 275.4194 13.17649969236042"
  },
  {
    "name": "ONEWEB-0315",
    "noradId": "49101",
    "line1": "1 49101U 21075AC  26186.96285219  .00000340  00000+0  91020-3 0  9996",
    "line2": "2 49101  87.8959 346.9110 0001767  81.7824 278.3505 13.12442748237635"
  },
  {
    "name": "ONEWEB-0316",
    "noradId": "49102",
    "line1": "1 49102U 21075AD  26186.90030914  .00000092  00000+0  20055-3 0  9995",
    "line2": "2 49102  87.9184 331.7336 0001919  97.0295 263.1055 13.18686411239671"
  },
  {
    "name": "ONEWEB-0317",
    "noradId": "49103",
    "line1": "1 49103U 21075AE  26186.96624205  .00000362  00000+0  96986-3 0  9990",
    "line2": "2 49103  87.8960 346.9345 0002223 111.8831 248.2534 13.12442717237656"
  },
  {
    "name": "ONEWEB-0318",
    "noradId": "49104",
    "line1": "1 49104U 21075AF  26186.82106298  .00000009  00000+0 -10610-4 0  9993",
    "line2": "2 49104  87.9186 331.7515 0001861  90.7130 269.4216 13.18686054239624"
  },
  {
    "name": "ONEWEB-0319",
    "noradId": "49105",
    "line1": "1 49105U 21075AG  26187.00556489  .00000100  00000+0  22405-3 0  9991",
    "line2": "2 49105  87.9135   2.1236 0001744  74.0587 286.0737 13.17650518236084"
  },
  {
    "name": "ONEWEB-0323",
    "noradId": "49106",
    "line1": "1 49106U 21075AH  26186.94760116 -.00000178  00000+0 -52877-3 0  9991",
    "line2": "2 49106  87.8961 346.9192 0001904  77.3084 282.8258 13.12443100237015"
  },
  {
    "name": "ONEWEB-0329",
    "noradId": "49107",
    "line1": "1 49107U 21075AJ  26187.01400725  .00000013  00000+0  14760-5 0  9995",
    "line2": "2 49107  87.9137   2.1229 0001982  87.5094 272.6264 13.17649820236064"
  },
  {
    "name": "ONEWEB-0330",
    "noradId": "49108",
    "line1": "1 49108U 21075AK  26187.24643505 -.00043627  00000+0 -11111+0 0  9997",
    "line2": "2 49108  87.9141   2.0886 0002162  89.4549 270.6831 13.18754322236136"
  },
  {
    "name": "ONEWEB-0292",
    "noradId": "49186",
    "line1": "1 49186U 21083A   26186.90524306  .00000105  00000+0  25303-3 0  9995",
    "line2": "2 49186  87.8969 316.5116 0001835  94.9499 265.1840 13.13469133233380"
  },
  {
    "name": "ONEWEB-0303",
    "noradId": "49187",
    "line1": "1 49187U 21083B   26186.96942920  .00000109  00000+0  24389-3 0  9995",
    "line2": "2 49187  87.9185 331.7204 0001830  90.8859 269.2483 13.18687892232453"
  },
  {
    "name": "ONEWEB-0306",
    "noradId": "49188",
    "line1": "1 49188U 21083C   26186.95931220  .00000036  00000+0  59546-4 0  9999",
    "line2": "2 49188  87.9190 331.7108 0001988 102.4248 257.7107 13.18684015232492"
  },
  {
    "name": "ONEWEB-0307",
    "noradId": "49189",
    "line1": "1 49189U 21083D   26186.82313738 -.00000071  00000+0 -22998-3 0  9995",
    "line2": "2 49189  87.8972 316.5258 0002163 100.6162 259.5211 13.13472186233371"
  }
]