{"fetched_at":"2026-07-06T18:35:14.557Z","source":"https://celestrak.org/NORAD/elements/gp.php?GROUP=oneweb&FORMAT=JSON","constellation":"oneweb","records":[{"OBJECT_NAME":"ONEWEB-0311","OBJECT_ID":"2021-075Y","EPOCH":"2026-07-06T00:05:34.971936","CLASSIFICATION_TYPE":"U","MEAN_MOTION":13.17647731,"ECCENTRICITY":0.00019428,"INCLINATION":87.9137,"RA_OF_ASC_NODE":2.119,"ARG_OF_PERICENTER":77.8444,"MEAN_ANOMALY":282.2905,"EPHEMERIS_TYPE":0,"NORAD_CAT_ID":49097,"ELEMENT_SET_NO":999,"REV_AT_EPOCH":23610,"BSTAR":0.000056075962,"MEAN_MOTION_DOT":3.5e-7,"MEAN_MOTION_DDOT":0},{"OBJECT_NAME":"ONEWEB-0312","OBJECT_ID":"2021-075Z","EPOCH":"2026-07-06T00:27:27.747360","CLASSIFICATION_TYPE":"U","MEAN_MOTION":13.17647874,"ECCENTRICITY":0.00021398,"INCLINATION":87.9135,"RA_OF_ASC_NODE":2.1262,"ARG_OF_PERICENTER":86.17,"MEAN_ANOMALY":273.9676,"EPHEMERIS_TYPE":0,"NORAD_CAT_ID":49098,"ELEMENT_SET_NO":999,"REV_AT_EPOCH":23608,"BSTAR":0.000069624136,"MEAN_MOTION_DOT":4e-7,"MEAN_MOTION_DDOT":0},{"OBJECT_NAME":"ONEWEB-0313","OBJECT_ID":"2021-075AA","EPOCH":"2026-07-05T22:45:12.472128","CLASSIFICATION_TYPE":"U","MEAN_MOTION":13.17649772,"ECCENTRICITY":0.0001903,"INCLINATION":87.9134,"RA_OF_ASC_NODE":2.1456,"ARG_OF_PERICENTER":86.7761,"MEAN_ANOMALY":273.3588,"EPHEMERIS_TYPE":0,"NORAD_CAT_ID":49099,"ELEMENT_SET_NO":999,"REV_AT_EPOCH":23606,"BSTAR":0.000047105228,"MEAN_MOTION_DOT":3.1e-7,"MEAN_MOTION_DDOT":0},{"OBJECT_NAME":"ONEWEB-0314","OBJECT_ID":"2021-075AB","EPOCH":"2026-07-05T23:46:09.576768","CLASSIFICATION_TYPE":"U","MEAN_MOTION":13.17649969,"ECCENTRICITY":0.00022032,"INCLINATION":87.9144,"RA_OF_ASC_NODE":2.1121,"ARG_OF_PERICENTER":84.7189,"MEAN_ANOMALY":275.4194,"EPHEMERIS_TYPE":0,"NORAD_CAT_ID":49100,"ELEMENT_SET_NO":999,"REV_AT_EPOCH":23604,"BSTAR":0.00009164262,"MEAN_MOTION_DOT":4.8e-7,"MEAN_MOTION_DDOT":0},{"OBJECT_NAME":"ONEWEB-0315","OBJECT_ID":"2021-075AC","EPOCH":"2026-07-05T23:06:30.429216","CLASSIFICATION_TYPE":"U","MEAN_MOTION":13.12442748,"ECCENTRICITY":0.00017673,"INCLINATION":87.8959,"RA_OF_ASC_NODE":346.911,"ARG_OF_PERICENTER":81.7824,"MEAN_ANOMALY":278.3505,"EPHEMERIS_TYPE":0,"NORAD_CAT_ID":49101,"ELEMENT_SET_NO":999,"REV_AT_EPOCH":23763,"BSTAR":0.00091020413,"MEAN_MOTION_DOT":0.0000034,"MEAN_MOTION_DDOT":0},{"OBJECT_NAME":"ONEWEB-0316","OBJECT_ID":"2021-075AD","EPOCH":"2026-07-05T21:36:26.709696","CLASSIFICATION_TYPE":"U","MEAN_MOTION":13.18686411,"ECCENTRICITY":0.00019192,"INCLINATION":87.9184,"RA_OF_ASC_NODE":331.7336,"ARG_OF_PERICENTER":97.0295,"MEAN_ANOMALY":263.1055,"EPHEMERIS_TYPE":0,"NORAD_CAT_ID":49102,"ELEMENT_SET_NO":999,"REV_AT_EPOCH":23967,"BSTAR":0.00020055144,"MEAN_MOTION_DOT":9.2e-7,"MEAN_MOTION_DDOT":0},{"OBJECT_NAME":"ONEWEB-0317","OBJECT_ID":"2021-075AE","EPOCH":"2026-07-05T23:11:23.313120","CLASSIFICATION_TYPE":"U","MEAN_MOTION":13.12442717,"ECCENTRICITY":0.00022239,"INCLINATION":87.896,"RA_OF_ASC_NODE":346.9345,"ARG_OF_PERICENTER":111.8831,"MEAN_ANOMALY":248.2534,"EPHEMERIS_TYPE":0,"NORAD_CAT_ID":49103,"ELEMENT_SET_NO":999,"REV_AT_EPOCH":23765,"BSTAR":0.00096985823,"MEAN_MOTION_DOT":0.00000362,"MEAN_MOTION_DDOT":0},{"OBJECT_NAME":"ONEWEB-0318","OBJECT_ID":"2021-075AF","EPOCH":"2026-07-05T19:42:19.841472","CLASSIFICATION_TYPE":"U","MEAN_MOTION":13.18686054,"ECCENTRICITY":0.00018613,"INCLINATION":87.9186,"RA_OF_ASC_NODE":331.7515,"ARG_OF_PERICENTER":90.713,"MEAN_ANOMALY":269.4216,"EPHEMERIS_TYPE":0,"NORAD_CAT_ID":49104,"ELEMENT_SET_NO":999,"REV_AT_EPOCH":23962,"BSTAR":-0.000010610395,"MEAN_MOTION_DOT":9e-8,"MEAN_MOTION_DDOT":0},{"OBJECT_NAME":"ONEWEB-0319","OBJECT_ID":"2021-075AG","EPOCH":"2026-07-06T00:08:00.806496","CLASSIFICATION_TYPE":"U","MEAN_MOTION":13.17650518,"ECCENTRICITY":0.00017444,"INCLINATION":87.9135,"RA_OF_ASC_NODE":2.1236,"ARG_OF_PERICENTER":74.0587,"MEAN_ANOMALY":286.0737,"EPHEMERIS_TYPE":0,"NORAD_CAT_ID":49105,"ELEMENT_SET_NO":999,"REV_AT_EPOCH":23608,"BSTAR":0.00022405257,"MEAN_MOTION_DOT":0.000001,"MEAN_MOTION_DDOT":0},{"OBJECT_NAME":"ONEWEB-0323","OBJECT_ID":"2021-075AH","EPOCH":"2026-07-05T22:44:32.740224","CLASSIFICATION_TYPE":"U","MEAN_MOTION":13.124431,"ECCENTRICITY":0.00019047,"INCLINATION":87.8961,"RA_OF_ASC_NODE":346.9192,"ARG_OF_PERICENTER":77.3084,"MEAN_ANOMALY":282.8258,"EPHEMERIS_TYPE":0,"NORAD_CAT_ID":49106,"ELEMENT_SET_NO":999,"REV_AT_EPOCH":23701,"BSTAR":-0.00052877156,"MEAN_MOTION_DOT":-0.00000178,"MEAN_MOTION_DDOT":0},{"OBJECT_NAME":"ONEWEB-0329","OBJECT_ID":"2021-075AJ","EPOCH":"2026-07-06T00:20:10.226400","CLASSIFICATION_TYPE":"U","MEAN_MOTION":13.1764982,"ECCENTRICITY":0.00019822,"INCLINATION":87.9137,"RA_OF_ASC_NODE":2.1229,"ARG_OF_PERICENTER":87.5094,"MEAN_ANOMALY":272.6264,"EPHEMERIS_TYPE":0,"NORAD_CAT_ID":49107,"ELEMENT_SET_NO":999,"REV_AT_EPOCH":23606,"BSTAR":0.000001475971,"MEAN_MOTION_DOT":1.3e-7,"MEAN_MOTION_DDOT":0},{"OBJECT_NAME":"ONEWEB-0330","OBJECT_ID":"2021-075AK","EPOCH":"2026-07-06T05:54:51.988320","CLASSIFICATION_TYPE":"U","MEAN_MOTION":13.18754322,"ECCENTRICITY":0.00021622,"INCLINATION":87.9141,"RA_OF_ASC_NODE":2.0886,"ARG_OF_PERICENTER":89.4549,"MEAN_ANOMALY":270.6831,"EPHEMERIS_TYPE":0,"NORAD_CAT_ID":49108,"ELEMENT_SET_NO":999,"REV_AT_EPOCH":23613,"BSTAR":-0.1111116,"MEAN_MOTION_DOT":-0.00043627,"MEAN_MOTION_DDOT":0},{"OBJECT_NAME":"ONEWEB-0292","OBJECT_ID":"2021-083A","EPOCH":"2026-07-05T21:43:33.000384","CLASSIFICATION_TYPE":"U","MEAN_MOTION":13.13469133,"ECCENTRICITY":0.00018355,"INCLINATION":87.8969,"RA_OF_ASC_NODE":316.5116,"ARG_OF_PERICENTER":94.9499,"MEAN_ANOMALY":265.184,"EPHEMERIS_TYPE":0,"NORAD_CAT_ID":49186,"ELEMENT_SET_NO":999,"REV_AT_EPOCH":23338,"BSTAR":0.00025303424,"MEAN_MOTION_DOT":0.00000105,"MEAN_MOTION_DDOT":0},{"OBJECT_NAME":"ONEWEB-0303","OBJECT_ID":"2021-083B","EPOCH":"2026-07-05T23:15:58.682880","CLASSIFICATION_TYPE":"U","MEAN_MOTION":13.18687892,"ECCENTRICITY":0.00018309,"INCLINATION":87.9185,"RA_OF_ASC_NODE":331.7204,"ARG_OF_PERICENTER":90.8859,"MEAN_ANOMALY":269.2483,"EPHEMERIS_TYPE":0,"NORAD_CAT_ID":49187,"ELEMENT_SET_NO":999,"REV_AT_EPOCH":23245,"BSTAR":0.00024388602,"MEAN_MOTION_DOT":0.00000109,"MEAN_MOTION_DDOT":0},{"OBJECT_NAME":"ONEWEB-0306","OBJECT_ID":"2021-083C","EPOCH":"2026-07-05T23:01:24.574080","CLASSIFICATION_TYPE":"U","MEAN_MOTION":13.18684015,"ECCENTRICITY":0.00019881,"INCLINATION":87.919,"RA_OF_ASC_NODE":331.7108,"ARG_OF_PERICENTER":102.4248,"MEAN_ANOMALY":257.7107,"EPHEMERIS_TYPE":0,"NORAD_CAT_ID":49188,"ELEMENT_SET_NO":999,"REV_AT_EPOCH":23249,"BSTAR":0.000059546333,"MEAN_MOTION_DOT":3.6e-7,"MEAN_MOTION_DDOT":0},{"OBJECT_NAME":"ONEWEB-0307","OBJECT_ID":"2021-083D","EPOCH":"2026-07-05T19:45:19.069632","CLASSIFICATION_TYPE":"U","MEAN_MOTION":13.13472186,"ECCENTRICITY":0.00021631,"INCLINATION":87.8972,"RA_OF_ASC_NODE":316.5258,"ARG_OF_PERICENTER":100.6162,"MEAN_ANOMALY":259.5211,"EPHEMERIS_TYPE":0,"NORAD_CAT_ID":49189,"ELEMENT_SET_NO":999,"REV_AT_EPOCH":23337,"BSTAR":-0.00022998052,"MEAN_MOTION_DOT":-7.1e-7,"MEAN_MOTION_DDOT":0}]}
